OBJECT_NAME,OBJECT_ID,EPOCH,MEAN_MOTION,ECCENTRICITY,INCLINATION,RA_OF_ASC_NODE,ARG_OF_PERICENTER,MEAN_ANOMALY,EPHEMERIS_TYPE,CLASSIFICATION_TYPE,NORAD_CAT_ID,ELEMENT_SET_NO,REV_AT_EPOCH,BSTAR,MEAN_MOTION_DOT,MEAN_MOTION_DDOT
STARS (KUKAI),2009-002G,2026-06-05T02:38:48.376896,14.95662122,.000783,98.1542,102.9272,201.4414,158.6479,0,U,33498,999,93667,.40753E-3,.4472E-4,0
KKS-1 (KISEKI),2009-002H,2026-06-05T01:04:56.608032,14.83092240,.0007334,98.1193,78.2951,340.4565,19.6365,0,U,33499,999,93439,.21277E-3,.1678E-4,0
UK-DMC 2,2009-041C,2026-06-05T03:49:02.623296,14.76011564,.0001334,97.8827,291.4202,74.5716,285.5641,0,U,35683,999,90479,.14012E-3,.915E-5,0
OCEANSAT-2,2009-051A,2026-06-05T04:33:30.589632,13.99662816,.0014544,98.2322,144.2383,273.0051,86.9452,0,U,35931,999,87765,.15631E-3,.191E-5,0
SWISSCUBE,2009-051B,2026-06-03T06:42:55.096704,14.62453382,.00053989,98.4045,61.9256,254.9932,105.0671,0,U,35932,999,88712,.25059349E-3,.122E-4,0
BEESAT-1,2009-051C,2026-06-04T17:16:09.800832,14.61699990,.0003911,98.3973,63.0518,267.5336,92.5417,0,U,35933,999,88736,.22006E-3,.1047E-4,0
ITUPSAT1,2009-051E,2026-06-04T16:47:20.224032,14.60421767,.0006134,98.4056,62.2366,280.9538,79.0971,0,U,35935,999,88691,.20796E-3,.958E-5,0
DMSP 5D-3 F18 (USA 210),2009-057A,2026-06-05T02:51:50.392800,14.14889973,.0009936,98.9033,136.9150,288.0384,71.9706,0,U,35951,999,85788,.17656E-3,.296E-5,0
PROBA-2,2009-059B,2026-06-05T01:36:44.682912,14.54857004,.0012402,98.2449,339.5882,322.8929,37.1409,0,U,36037,999,87976,.55872E-4,.195E-5,0
YAOGAN-7,2009-069A,2026-06-04T16:47:36.747168,14.77996983,.0026007,98.0085,41.6431,80.1150,280.2994,0,U,36110,999,88778,.9417E-4,.63E-5,0
XIWANG-1 (HOPE-1),2009-072B,2026-06-05T03:50:26.007936,13.16438348,.0006779,100.4027,110.1849,262.1197,97.9147,0,U,36122,999,79142,.1274E-3,.4E-7,0
COSMOS 2463,2010-017A,2026-06-04T15:42:20.858112,13.71664853,.00366816,82.9609,258.9133,162.8538,311.8786,0,U,36519,999,80621,.59264997E-4,.69E-6,0
CARTOSAT-2B,2010-035A,2026-06-05T03:49:02.092800,14.78645198,.0010295,97.9953,206.7844,225.4697,134.5674,0,U,36795,999,85807,.98766E-4,.671E-5,0
TISAT 1,2010-035E,2026-06-05T02:16:43.622112,15.31230464,.0000324,98.0706,101.5757,13.4506,346.6742,0,U,36799,999,86585,.79927E-3,.24075E-3,0
YAOGAN-10,2010-038A,2026-06-05T05:26:26.257056,14.85310536,.0001619,97.8975,179.7263,88.8225,340.0686,0,U,36834,999,85543,.22526E-3,.1882E-4,0
SHIJIAN-6 04B (SJ-6 04B),2010-051B,2026-06-05T03:26:30.261120,14.99287494,.0009665,97.8679,161.4314,351.6620,8.4441,0,U,37180,999,85387,.9154E-4,.1056E-4,0
FENGYUN 3B,2010-059A,2026-06-05T05:09:50.086656,14.14838081,.0021312,98.9618,202.1782,218.7147,224.2187,0,U,37214,999,80573,.35218E-4,.23E-6,0
COSMO-SKYMED 4,2010-060A,2026-06-05T03:45:49.419072,14.82160670,.0001446,97.8884,339.9310,82.6824,277.4553,0,U,37216,999,84278,.94323E-4,.699E-5,0
O/OREOS (USA 219),2010-062C,2026-06-05T03:23:38.021856,14.93690973,.0012355,71.9702,107.6232,89.4979,270.7607,0,U,37224,999,11484,.28734E-3,.2983E-4,0
RESOURCESAT-2,2011-015A,2026-06-05T01:17:08.694240,14.21603797,.0010181,98.7646,223.5787,294.5838,65.4278,0,U,37387,999,78445,.68797E-4,.107E-5,0
YOUTHSAT,2011-015B,2026-06-05T05:09:59.181984,14.25625104,.0014974,98.3676,130.8096,21.9422,349.4667,0,U,37388,999,78593,.10405E-3,.205E-5,0
APRIZESAT 6,2011-044F,2026-06-04T17:58:01.333920,14.76897456,.0044215,98.2372,65.9940,124.6952,296.7831,0,U,37793,999,79531,.13078E-3,.878E-5,0
JUGNU,2011-058B,2026-06-01T01:53:10.333248,14.13771859,.00184994,19.9618,46.2876,258.1927,242.1590,0,U,37839,999,75674,.98509485E-4,.456E-5,0
SRMSAT,2011-058D,2026-06-04T06:57:29.209824,14.11572942,.00119136,19.9702,137.5332,62.8275,26.7062,0,U,37841,999,75599,.69540005E-4,.393E-5,0
SUOMI NPP,2011-061A,2026-06-05T01:49:22.789344,14.19514806,.0002171,98.7951,97.0351,32.8179,327.3131,0,U,37849,999,75672,.68869E-4,.101E-5,0
YAOGAN-12,2011-066B,2026-06-05T04:54:25.636896,15.26441604,.0008013,97.1144,195.3369,267.8975,92.1347,0,U,37875,999,81021,.21698E-3,.5589E-4,0
