STARS (KUKAI)           
1 33498U 09002G   26156.11028214  .00004472  00000+0  40753-3 0  9995
2 33498  98.1542 102.9272 0007830 201.4414 158.6479 14.95662122936674
KKS-1 (KISEKI)          
1 33499U 09002H   26156.04509963  .00001678  00000+0  21277-3 0  9998
2 33499  98.1193  78.2951 0007334 340.4565  19.6365 14.83092240934398
UK-DMC 2                
1 35683U 09041C   26156.15905814  .00000915  00000+0  14012-3 0  9997
2 35683  97.8827 291.4202 0001334  74.5716 285.5641 14.76011564904794
OCEANSAT-2              
1 35931U 09051A   26156.18993738  .00000191  00000+0  15631-3 0  9993
2 35931  98.2322 144.2383 0014544 273.0051  86.9452 13.99662816877658
SWISSCUBE               
1 35932U 09051B   26154.27980436  .00001220  00000+0  25059-3 0  9992
2 35932  98.4045  61.9256 0005398 254.9932 105.0671 14.62453382887126
BEESAT-1                
1 35933U 09051C   26155.71955788  .00001047  00000+0  22006-3 0  9991
2 35933  98.3973  63.0518 0003911 267.5336  92.5417 14.61699990887367
ITUPSAT1                
1 35935U 09051E   26155.69953963  .00000958  00000+0  20796-3 0  9997
2 35935  98.4056  62.2366 0006134 280.9538  79.0971 14.60421767886916
DMSP 5D-3 F18 (USA 210) 
1 35951U 09057A   26156.11933325  .00000296  00000+0  17656-3 0  9995
2 35951  98.9033 136.9150 0009936 288.0384  71.9706 14.14889973857882
PROBA-2                 
1 36037U 09059B   26156.06718383  .00000195  00000+0  55872-4 0  9993
2 36037  98.2449 339.5882 0012402 322.8929  37.1409 14.54857004879768
YAOGAN-7                
1 36110U 09069A   26155.69973087  .00000630  00000+0  94170-4 0  9996
2 36110  98.0085  41.6431 0026007  80.1150 280.2994 14.77996983887787
XIWANG-1 (HOPE-1)       
1 36122U 09072B   26156.16002324  .00000004  00000+0  12740-3 0  9990
2 36122 100.4027 110.1849 0006779 262.1197  97.9147 13.16438348791422
COSMOS 2463             
1 36519U 10017A   26155.65440808  .00000069  00000+0  59265-4 0  9992
2 36519  82.9609 258.9133 0036681 162.8538 311.8786 13.71664853806213
CARTOSAT-2B             
1 36795U 10035A   26156.15905200  .00000671  00000+0  98766-4 0  9994
2 36795  97.9953 206.7844 0010295 225.4697 134.5674 14.78645198858078
TISAT 1                 
1 36799U 10035E   26156.09494933  .00024075  00000+0  79927-3 0  9998
2 36799  98.0706 101.5757 0000324  13.4506 346.6742 15.31230464865853
YAOGAN-10               
1 36834U 10038A   26156.22669279  .00001882  00000+0  22526-3 0  9997
2 36834  97.8975 179.7263 0001619  88.8225 340.0686 14.85310536855434
SHIJIAN-6 04B (SJ-6 04B)
1 37180U 10051B   26156.14340580  .00001056  00000+0  91540-4 0  9995
2 37180  97.8679 161.4314 0009665 351.6620   8.4441 14.99287494853875
FENGYUN 3B              
1 37214U 10059A   26156.21516304  .00000023  00000+0  35218-4 0  9991
2 37214  98.9618 202.1782 0021312 218.7147 224.2187 14.14838081805738
COSMO-SKYMED 4          
1 37216U 10060A   26156.15682198  .00000699  00000+0  94323-4 0  9994
2 37216  97.8884 339.9310 0001446  82.6824 277.4553 14.82160670842785
O/OREOS (USA 219)       
1 37224U 10062C   26156.14141229  .00002983  00000+0  28734-3 0  9999
2 37224  71.9702 107.6232 0012355  89.4979 270.7607 14.93690973114847
RESOURCESAT-2           
1 37387U 11015A   26156.05357285  .00000107  00000+0  68797-4 0  9999
2 37387  98.7646 223.5787 0010181 294.5838  65.4278 14.21603797784454
YOUTHSAT                
1 37388U 11015B   26156.21526831  .00000205  00000+0  10405-3 0  9994
2 37388  98.3676 130.8096 0014974  21.9422 349.4667 14.25625104785933
APRIZESAT 6             
1 37793U 11044F   26155.74862655  .00000878  00000+0  13078-3 0  9995
2 37793  98.2372  65.9940 0044215 124.6952 296.7831 14.76897456795318
JUGNU                   
1 37839U 11058B   26152.07859182  .00000456  00000+0  98509-4 0  9990
2 37839  19.9618  46.2876 0018499 258.1927 242.1590 14.13771859756742
SRMSAT                  
1 37841U 11058D   26155.28992141  .00000393  00000+0  69540-4 0  9995
2 37841  19.9702 137.5332 0011913  62.8275  26.7062 14.11572942755996
SUOMI NPP               
1 37849U 11061A   26156.07595821  .00000101  00000+0  68869-4 0  9999
2 37849  98.7951  97.0351 0002171  32.8179 327.3131 14.19514806756724
YAOGAN-12               
1 37875U 11066B   26156.20446339  .00005589  00000+0  21698-3 0  9990
2 37875  97.1144 195.3369 0008013 267.8975  92.1347 15.26441604810211
